{"type": "FeatureCollection", "features": [{"type": "Feature", "geometry": {"type": "Point", "coordinates": [-77.1094, -8.9531]}, "properties": {"id": "ius_locks_w", "中文名": "Ius 船闸群（西闸）", "英文名": "Ius Locks (west)", "类别": "闸坝", "阵营": "锈色中国", "等级": "1", "正典": "正文+地图", "MOLA高程_m": "-3273", "2100状态": "水上（水手峡谷海·Ius 段）"}}, {"type": "Feature", "geometry": {"type": "Point", "coordinates": [-74.2656, -8.5156]}, "properties": {"id": "ius_locks_e", "中文名": "Ius 船闸群（东闸）", "英文名": "Ius Locks (east)", "类别": "闸坝", "阵营": "锈色中国", "等级": "1", "正典": "正文+地图", "MOLA高程_m": "-3677", "2100状态": "水上（水手峡谷海·中段）"}}, {"type": "Feature", "geometry": {"type": "Point", "coordinates": [-42.0156, -14.713]}, "properties": {"id": "capri_dam", "中文名": "Capri 峡谷大坝", "英文名": "Capri Chasma Dam", "类别": "闸坝", "阵营": "火星联邦（美）", "等级": "1", "正典": "正文+地图", "MOLA高程_m": "-3631", "2100状态": "陆地"}}, {"type": "Feature", "geometry": {"type": "Point", "coordinates": [-42.0156, -15.625]}, "properties": {"id": "eos_dam", "中文名": "Eos 大坝", "英文名": "Eos Dam", "类别": "闸坝", "阵营": "火星联邦（美）", "等级": "1", "正典": "仅地图", "MOLA高程_m": "-3893", "2100状态": "水上（厄俄斯湖）"}}, {"type": "Feature", "geometry": {"type": "Point", "coordinates": [-112.6055, -0.0117]}, "properties": {"id": "new_shanghai", "中文名": "新上海", "英文名": "New Shanghai", "类别": "城市", "阵营": "锈色中国", "等级": "1", "正典": "正文+地图", "MOLA高程_m": "13810", "2100状态": "陆地"}}, {"type": "Feature", "geometry": {"type": "Point", "coordinates": [-112.6055, 0.13]}, "properties": {"id": "elevator", "中文名": "太空电梯地面基座", "英文名": "Space Elevator ground station", "类别": "设施", "阵营": "锈色中国", "等级": "1", "正典": "正文", "MOLA高程_m": "13626", "2100状态": "陆地"}}, {"type": "Feature", "geometry": {"type": "Point", "coordinates": [-133.8025, 14.1483]}, "properties": {"id": "nix_olympica", "中文名": "尼克斯奥林匹卡", "英文名": "Nix Olympica", "类别": "城市", "阵营": "独立", "等级": "1", "正典": "正文+地图", "MOLA高程_m": "4375", "2100状态": "陆地"}}, {"type": "Feature", "geometry": {"type": "Point", "coordinates": [-133.8025, 14.1652]}, "properties": {"id": "univ_mars", "中文名": "火星大学", "英文名": "University of Mars", "类别": "设施", "阵营": "独立", "等级": "2", "正典": "正文", "MOLA高程_m": "4550", "2100状态": "陆地"}}, {"type": "Feature", "geometry": {"type": "Point", "coordinates": [-133.7747, 14.1483]}, "properties": {"id": "zeus_resort", "中文名": "宙斯旅游度假区（主设施）", "英文名": "Zeus Tourist Resort", "类别": "设施", "阵营": "独立", "等级": "2", "正典": "正文+地图", "MOLA高程_m": "4350", "2100状态": "陆地"}}, {"type": "Feature", "geometry": {"type": "Point", "coordinates": [-133.1951, 18.3431]}, "properties": {"id": "zeus_caldera", "中文名": "宙斯度假区·火山口分部", "英文名": "Zeus Resort (caldera branch)", "类别": "设施", "阵营": "独立", "等级": "3", "正典": "正文", "MOLA高程_m": "17917", "2100状态": "陆地"}}, {"type": "Feature", "geometry": {"type": "Point", "coordinates": [-112.754, 8.423]}, "properties": {"id": "aralqi", "中文名": "Aralqi", "英文名": "Aralqi", "类别": "城镇", "阵营": "锈色中国", "等级": "3", "正典": "正文+地图", "MOLA高程_m": "1564", "2100状态": "陆地"}}, {"type": "Feature", "geometry": {"type": "Point", "coordinates": [-110.0, 2.0]}, "properties": {"id": "rizhao", "中文名": "日照", "英文名": "Rizhao", "类别": "城镇", "阵营": "锈色中国（按命名推断）", "等级": "3", "正典": "仅地图", "MOLA高程_m": "5633", "2100状态": "陆地"}}, {"type": "Feature", "geometry": {"type": "Point", "coordinates": [-124.0, -5.0]}, "properties": {"id": "heze", "中文名": "菏泽", "英文名": "Heze", "类别": "城镇", "阵营": "锈色中国（按命名推断）", "等级": "3", "正典": "仅地图", "MOLA高程_m": "4946", "2100状态": "陆地"}}, {"type": "Feature", "geometry": {"type": "Point", "coordinates": [-126.4, -14.7]}, "properties": {"id": "as_sulaymi", "中文名": "As Sulaymi", "英文名": "As Sulaymi", "类别": "城镇", "阵营": "沙特", "等级": "3", "正典": "正文+地图", "MOLA高程_m": "5034", "2100状态": "陆地"}}, {"type": "Feature", "geometry": {"type": "Point", "coordinates": [-150.1719, 25.2031]}, "properties": {"id": "liangzhen", "中文名": "Liangzhen", "英文名": "Liangzhen", "类别": "城镇", "阵营": "锈色中国", "等级": "2", "正典": "正文+地图", "MOLA高程_m": "-3578", "2100状态": "陆地"}}, {"type": "Feature", "geometry": {"type": "Point", "coordinates": [-163.7656, 25.5469]}, "properties": {"id": "oita", "中文名": "大分", "英文名": "Oita", "类别": "城镇", "阵营": "日本（按命名推断）", "等级": "3", "正典": "仅地图", "MOLA高程_m": "-3676", "2100状态": "陆地"}}, {"type": "Feature", "geometry": {"type": "Point", "coordinates": [150.1211, 18.6445]}, "properties": {"id": "albor_home", "中文名": "阿尔博尔山顶独居庄园", "英文名": "Albor Tholus summit home", "类别": "庄园", "阵营": "火星百万富翁", "等级": "3", "正典": "正文", "MOLA高程_m": "3923", "2100状态": "陆地"}}, {"type": "Feature", "geometry": {"type": "Point", "coordinates": [-107.1, -11.7]}, "properties": {"id": "urumqi", "中文名": "乌鲁木齐", "英文名": "Urumqi", "类别": "城镇", "阵营": "锈色中国（按命名推断）", "等级": "3", "正典": "仅地图", "MOLA高程_m": "6277", "2100状态": "陆地"}}, {"type": "Feature", "geometry": {"type": "Point", "coordinates": [-101.8086, -7.6914]}, "properties": {"id": "ge_gyai", "中文名": "革吉", "英文名": "Ge'gyai", "类别": "城镇", "阵营": "锈色中国", "等级": "3", "正典": "正文+地图", "MOLA高程_m": "5119", "2100状态": "陆地"}}, {"type": "Feature", "geometry": {"type": "Point", "coordinates": [-103.9002, -12.0883]}, "properties": {"id": "wudu", "中文名": "武都", "英文名": "Wudu", "类别": "城镇", "阵营": "锈色中国", "等级": "2", "正典": "正文+地图", "MOLA高程_m": "6666", "2100状态": "陆地"}}, {"type": "Feature", "geometry": {"type": "Point", "coordinates": [-99.4, -1.7]}, "properties": {"id": "guxiang", "中文名": "故乡", "英文名": "Guxiang", "类别": "遗址", "阵营": "锈色中国", "等级": "2", "正典": "正文+地图", "MOLA高程_m": "5898", "2100状态": "陆地"}}, {"type": "Feature", "geometry": {"type": "Point", "coordinates": [-91.0194, -9.104]}, "properties": {"id": "haiyuan", "中文名": "海源城", "英文名": "Haiyuan City", "类别": "城市", "阵营": "锈色中国", "等级": "1", "正典": "正文+地图", "MOLA高程_m": "3690", "2100状态": "陆地"}}, {"type": "Feature", "geometry": {"type": "Point", "coordinates": [-79.9618, 2.4716]}, "properties": {"id": "nantong", "中文名": "南通", "英文名": "Nantong", "类别": "城镇", "阵营": "锈色中国（按命名推断）", "等级": "3", "正典": "新闻+地图", "MOLA高程_m": "-822", "2100状态": "陆地"}}, {"type": "Feature", "geometry": {"type": "Point", "coordinates": [-83.0156, -7.0156]}, "properties": {"id": "hanggin_qi", "中文名": "杭锦旗", "英文名": "Hanggin Qi", "类别": "城镇", "阵营": "锈色中国", "等级": "2", "正典": "正文+地图", "MOLA高程_m": "-2254", "2100状态": "陆地"}}, {"type": "Feature", "geometry": {"type": "Point", "coordinates": [-74.2656, -8.6094]}, "properties": {"id": "harbin", "中文名": "哈尔滨", "英文名": "Harbin", "类别": "城镇", "阵营": "锈色中国（按命名推断）", "等级": "3", "正典": "仅地图", "MOLA高程_m": "-2816", "2100状态": "陆地"}}, {"type": "Feature", "geometry": {"type": "Point", "coordinates": [-73.1094, -6.2344]}, "properties": {"id": "bako", "中文名": "巴科", "英文名": "Bako", "类别": "城镇", "阵营": "非洲（埃塞俄比亚）", "等级": "2", "正典": "正文+地图", "MOLA高程_m": "-3302", "2100状态": "陆地"}}, {"type": "Feature", "geometry": {"type": "Point", "coordinates": [-71.1719, -6.9844]}, "properties": {"id": "port_lowell", "中文名": "洛厄尔港", "英文名": "Port Lowell", "类别": "城市", "阵营": "企业（MDC）", "等级": "1", "正典": "正文+地图", "MOLA高程_m": "-3486", "2100状态": "陆地"}}, {"type": "Feature", "geometry": {"type": "Point", "coordinates": [-66.4034, -6.7969]}, "properties": {"id": "vlore", "中文名": "发罗拉", "英文名": "Vlore", "类别": "城镇", "阵营": "欧盟（按命名推断）", "等级": "3", "正典": "仅地图", "MOLA高程_m": "-1126", "2100状态": "陆地"}}, {"type": "Feature", "geometry": {"type": "Point", "coordinates": [-71.2344, -11.9531]}, "properties": {"id": "santo_tomas", "中文名": "圣托马斯", "英文名": "Santo Tomas", "类别": "城镇", "阵营": "火星联邦（美）", "等级": "2", "正典": "正文+地图", "MOLA高程_m": "-3287", "2100状态": "陆地"}}, {"type": "Feature", "geometry": {"type": "Point", "coordinates": [-58.7344, -13.0781]}, "properties": {"id": "fortuna", "中文名": "福尔图纳", "英文名": "Fortuna", "类别": "城镇", "阵营": "火星联邦（按命名推断）", "等级": "3", "正典": "仅地图", "MOLA高程_m": "-3175", "2100状态": "陆地"}}, {"type": "Feature", "geometry": {"type": "Point", "coordinates": [-58.2031, -10.4557]}, "properties": {"id": "chester", "中文名": "切斯特栖息地", "英文名": "Chester Habitat", "类别": "城镇", "阵营": "火星联邦（美）", "等级": "2", "正典": "正文+地图", "MOLA高程_m": "2939", "2100状态": "陆地"}}, {"type": "Feature", "geometry": {"type": "Point", "coordinates": [-42.7031, -14.5469]}, "properties": {"id": "robinson", "中文名": "罗宾逊城", "英文名": "Robinson City", "类别": "城市", "阵营": "火星联邦（美）", "等级": "1", "正典": "正文+地图", "MOLA高程_m": "-3183", "2100状态": "陆地"}}, {"type": "Feature", "geometry": {"type": "Point", "coordinates": [-43.9844, -16.8592]}, "properties": {"id": "plymouth", "中文名": "普利茅斯", "英文名": "Plymouth", "类别": "遗址", "阵营": "火星联邦（美）", "等级": "2", "正典": "正文+地图", "MOLA高程_m": "810", "2100状态": "陆地"}}, {"type": "Feature", "geometry": {"type": "Point", "coordinates": [-44.0196, -16.8592]}, "properties": {"id": "burroughs", "中文名": "巴勒斯火星历史博物馆", "英文名": "Burroughs Museum of Martian History", "类别": "设施", "阵营": "火星联邦（美）", "等级": "3", "正典": "正文", "MOLA高程_m": "794", "2100状态": "陆地"}}, {"type": "Feature", "geometry": {"type": "Point", "coordinates": [-42.4531, -16.0156]}, "properties": {"id": "anchorage", "中文名": "安克雷奇", "英文名": "Anchorage", "类别": "城镇", "阵营": "火星联邦（按命名推断）", "等级": "3", "正典": "仅地图", "MOLA高程_m": "-3157", "2100状态": "陆地"}}, {"type": "Feature", "geometry": {"type": "Point", "coordinates": [-40.4644, -6.3906]}, "properties": {"id": "red_lake", "中文名": "红湖", "英文名": "Red Lake", "类别": "城镇", "阵营": "火星联邦（美）", "等级": "2", "正典": "正文+地图", "MOLA高程_m": "1355", "2100状态": "陆地"}}, {"type": "Feature", "geometry": {"type": "Point", "coordinates": [-40.4644, -5.8001]}, "properties": {"id": "fort_meier", "中文名": "迈尔堡", "英文名": "Fort Meier", "类别": "军事", "阵营": "火星联邦（美陆军）", "等级": "2", "正典": "正文", "MOLA高程_m": "1506", "2100状态": "陆地"}}, {"type": "Feature", "geometry": {"type": "Point", "coordinates": [-37.524, -5.5604]}, "properties": {"id": "timbuktu", "中文名": "廷巴克图", "英文名": "Timbuktu", "类别": "城镇", "阵营": "火星联邦（美）", "等级": "3", "正典": "正文+地图", "MOLA高程_m": "-1540", "2100状态": "陆地"}}, {"type": "Feature", "geometry": {"type": "Point", "coordinates": [-46.5156, 21.1406]}, "properties": {"id": "zhigansk", "中文名": "日甘斯克", "英文名": "Zhigansk", "类别": "城市", "阵营": "独立（原俄罗斯）", "等级": "2", "正典": "正文+地图", "MOLA高程_m": "-3691", "2100状态": "陆地"}}, {"type": "Feature", "geometry": {"type": "Point", "coordinates": [-58.5305, 27.8405]}, "properties": {"id": "sharona", "中文名": "沙罗纳", "英文名": "Sharona", "类别": "城镇", "阵营": "火星联邦（美）", "等级": "2", "正典": "正文+地图", "MOLA高程_m": "586", "2100状态": "陆地"}}, {"type": "Feature", "geometry": {"type": "Point", "coordinates": [-42.1719, 15.6406]}, "properties": {"id": "new_amsterdam", "中文名": "新阿姆斯特丹", "英文名": "New Amsterdam", "类别": "城镇", "阵营": "荷兰", "等级": "3", "正典": "正文+地图", "MOLA高程_m": "-3690", "2100状态": "陆地"}}, {"type": "Feature", "geometry": {"type": "Point", "coordinates": [-36.8594, 18.0156]}, "properties": {"id": "rockwood", "中文名": "罗克伍德", "英文名": "Rockwood", "类别": "城镇", "阵营": "火星联邦（按命名推断）", "等级": "3", "正典": "仅地图", "MOLA高程_m": "-3665", "2100状态": "陆地"}}, {"type": "Feature", "geometry": {"type": "Point", "coordinates": [-25.6083, 10.2924]}, "properties": {"id": "shibetsu", "中文名": "士别", "英文名": "Shibetsu", "类别": "城镇", "阵营": "日本", "等级": "3", "正典": "正文+地图", "MOLA高程_m": "-3742", "2100状态": "陆地"}}, {"type": "Feature", "geometry": {"type": "Point", "coordinates": [-13.5156, 36.2969]}, "properties": {"id": "dayville", "中文名": "戴维尔", "英文名": "Dayville", "类别": "城镇", "阵营": "火星联邦（按命名推断）", "等级": "3", "正典": "仅地图", "MOLA高程_m": "-3455", "2100状态": "陆地"}}, {"type": "Feature", "geometry": {"type": "Point", "coordinates": [-23.0, -13.0]}, "properties": {"id": "christiana", "中文名": "克里斯蒂安娜", "英文名": "Christiana", "类别": "城镇", "阵营": "火星联邦/北欧（按命名推断）", "等级": "3", "正典": "仅地图", "MOLA高程_m": "-2110", "2100状态": "陆地"}}, {"type": "Feature", "geometry": {"type": "Point", "coordinates": [-48.187, 22.697]}, "properties": {"id": "viking1", "中文名": "维京公园·海盗 1 号着陆点", "英文名": "Viking Park / Viking 1 Lander", "类别": "遗址", "阵营": "火星联邦（美）", "等级": "2", "正典": "正文", "MOLA高程_m": "-3622", "2100状态": "陆地"}}, {"type": "Feature", "geometry": {"type": "Point", "coordinates": [-33.21, 19.13]}, "properties": {"id": "sagan", "中文名": "卡尔·萨根纪念站（火星探路者）", "英文名": "Carl Sagan Memorial Station", "类别": "遗址", "阵营": "火星联邦（美）", "等级": "3", "正典": "正文", "MOLA高程_m": "-3682", "2100状态": "陆地"}}, {"type": "Feature", "geometry": {"type": "Point", "coordinates": [-62.8784, 25.1357]}, "properties": {"id": "kasei", "中文名": "卡塞谷（劫道土匪出没区）", "英文名": "Kasei Valles", "类别": "区域", "阵营": "—", "等级": "3", "正典": "正文", "MOLA高程_m": "-2086", "2100状态": "陆地"}}, {"type": "Feature", "geometry": {"type": "Point", "coordinates": [140.0, 25.0]}, "properties": {"id": "peru_core", "中文名": "秘鲁殖民地核心区", "英文名": "Peruvian colony core", "类别": "区域", "阵营": "秘鲁", "等级": "2", "正典": "正文+地图", "MOLA高程_m": "608", "2100状态": "陆地"}}, {"type": "Feature", "geometry": {"type": "Point", "coordinates": [136.5469, 29.3594]}, "properties": {"id": "moyobamba", "中文名": "莫约班巴", "英文名": "Moyobamba", "类别": "城市", "阵营": "秘鲁", "等级": "2", "正典": "正文+地图", "MOLA高程_m": "-3694", "2100状态": "陆地"}}, {"type": "Feature", "geometry": {"type": "Point", "coordinates": [150.0, 30.0]}, "properties": {"id": "stygis", "中文名": "冥河城", "英文名": "Stygis Ciudad", "类别": "城市", "阵营": "秘鲁", "等级": "2", "正典": "正文+地图", "MOLA高程_m": "-1198", "2100状态": "陆地"}}, {"type": "Feature", "geometry": {"type": "Point", "coordinates": [150.0, 18.0]}, "properties": {"id": "ica_nova", "中文名": "新伊卡", "英文名": "Ica Nova", "类别": "城镇", "阵营": "秘鲁（按命名推断）", "等级": "3", "正典": "仅地图", "MOLA高程_m": "1346", "2100状态": "陆地"}}, {"type": "Feature", "geometry": {"type": "Point", "coordinates": [115.3923, 0.1931]}, "properties": {"id": "escalante", "中文名": "埃斯卡兰特站", "英文名": "Escalante Station", "类别": "设施", "阵营": "火星联邦（美）", "等级": "2", "正典": "正文+地图", "MOLA高程_m": "-942", "2100状态": "陆地"}}, {"type": "Feature", "geometry": {"type": "Point", "coordinates": [139.8281, 48.8906]}, "properties": {"id": "clarke", "中文名": "克拉克", "英文名": "Clarke", "类别": "城镇", "阵营": "火星联邦（按命名推断）", "等级": "3", "正典": "仅地图", "MOLA高程_m": "-3535", "2100状态": "陆地"}}, {"type": "Feature", "geometry": {"type": "Point", "coordinates": [82.0742, -38.4961]}, "properties": {"id": "dao_city", "中文名": "道城", "英文名": "Dao City", "类别": "城镇", "阵营": "混杂（按命名推断）", "等级": "3", "正典": "仅地图", "MOLA高程_m": "-6675", "2100状态": "陆地"}}, {"type": "Feature", "geometry": {"type": "Point", "coordinates": [60.6094, -31.4531]}, "properties": {"id": "hellas_shore", "中文名": "海拉斯海沿岸聚落带", "英文名": "Hellas Sea rim settlements", "类别": "区域", "阵营": "美、欧、南美为主", "等级": "2", "正典": "正文", "MOLA高程_m": "-6966", "2100状态": "陆地"}}, {"type": "Feature", "geometry": {"type": "Point", "coordinates": [67.1, 19.4]}, "properties": {"id": "syrtis_estates", "中文名": "大瑟提斯以北庄园区", "英文名": "Syrtis Major estates", "类别": "庄园", "阵营": "火星百万富翁", "等级": "3", "正典": "正文", "MOLA高程_m": "725", "2100状态": "陆地"}}, {"type": "Feature", "geometry": {"type": "Point", "coordinates": [67.103, 9.2007]}, "properties": {"id": "syrtis_desert", "中文名": "大瑟提斯荒漠（矿区·超级坦克决斗场）", "英文名": "Syrtis Major desert", "类别": "区域", "阵营": "企业 / 百万富翁", "等级": "3", "正典": "正文", "MOLA高程_m": "402", "2100状态": "陆地"}}, {"type": "Feature", "geometry": {"type": "Point", "coordinates": [54.96, 87.32]}, "properties": {"id": "north_cap", "中文名": "北极冰盖（自动钻机采冰）", "英文名": "Planum Boreum", "类别": "自然地标", "阵营": "—", "等级": "2", "正典": "正文", "MOLA高程_m": "-2609", "2100状态": "陆地"}}, {"type": "Feature", "geometry": {"type": "Point", "coordinates": [178.48, 81.16]}, "properties": {"id": "olympia_undae", "中文名": "奥林匹亚沙丘带", "英文名": "Olympia Undae", "类别": "自然地标", "阵营": "—", "等级": "3", "正典": "地图", "MOLA高程_m": "-4334", "2100状态": "水上（北方海）"}}, {"type": "Feature", "geometry": {"type": "Point", "coordinates": [157.7, -83.35]}, "properties": {"id": "south_cap", "中文名": "南极冰盖（科研与地球化站）", "英文名": "Planum Australe", "类别": "自然地标", "阵营": "—", "等级": "3", "正典": "正文", "MOLA高程_m": "3240", "2100状态": "陆地"}}, {"type": "Feature", "geometry": {"type": "Point", "coordinates": [-43.3098, -49.8406]}, "properties": {"id": "argyre", "中文名": "阿吉尔盆地（干）", "英文名": "Argyre Planitia", "类别": "自然地标", "阵营": "—", "等级": "3", "正典": "正文", "MOLA高程_m": "-2680", "2100状态": "陆地"}}, {"type": "Feature", "geometry": {"type": "Point", "coordinates": [16.7716, -2.7138]}, "properties": {"id": "schiaparelli", "中文名": "斯基亚帕雷利陨坑", "英文名": "Schiaparelli", "类别": "自然地标", "阵营": "—", "等级": "3", "正典": "—", "MOLA高程_m": "-391", "2100状态": "陆地"}}, {"type": "Feature", "geometry": {"type": "Point", "coordinates": [-84.2894, -4.6046]}, "properties": {"id": "lake_tithonium", "中文名": "提托尼乌姆湖", "英文名": "Lake Tithonium", "类别": "水体", "阵营": "—", "等级": "2", "正典": "正文+地图", "MOLA高程_m": "-455", "2100状态": "陆地"}}, {"type": "Feature", "geometry": {"type": "Point", "coordinates": [-70.9081, -6.2337]}, "properties": {"id": "lake_candor", "中文名": "坎多尔湖", "英文名": "Lake Candor", "类别": "水体", "阵营": "—", "等级": "2", "正典": "正文+地图", "MOLA高程_m": "-3276", "2100状态": "陆地"}}, {"type": "Feature", "geometry": {"type": "Point", "coordinates": [-43.8412, -15.0441]}, "properties": {"id": "lake_eos", "中文名": "厄俄斯湖", "英文名": "Lake Eos", "类别": "水体", "阵营": "—", "等级": "2", "正典": "正文+地图", "MOLA高程_m": "-3022", "2100状态": "陆地"}}, {"type": "Feature", "geometry": {"type": "Point", "coordinates": [-75.9343, -1.1117]}, "properties": {"id": "hebes_lake", "中文名": "赫柏湖（Hebes Chasma）", "英文名": "Hebes Chasma", "类别": "水体", "阵营": "—", "等级": "3", "正典": "仅地图", "MOLA高程_m": "2047", "2100状态": "陆地"}}, {"type": "Feature", "geometry": {"type": "Point", "coordinates": [-55.207, 0.5954]}, "properties": {"id": "mutch_lake", "中文名": "Mutch 陨坑湖", "英文名": "Mutch Crater lake", "类别": "水体", "阵营": "—", "等级": "3", "正典": "仅地图", "MOLA高程_m": "533", "2100状态": "水上（Mutch 陨坑湖）"}}, {"type": "Feature", "geometry": {"type": "Point", "coordinates": [-47.8851, -7.9552]}, "properties": {"id": "gangis", "中文名": "恒河（Gangis River）", "英文名": "Ganges Chasma", "类别": "水体", "阵营": "—", "等级": "3", "正典": "仅地图", "MOLA高程_m": "-3532", "2100状态": "陆地"}}, {"type": "Feature", "geometry": {"type": "Point", "coordinates": [-79.9618, 2.4716]}, "properties": {"id": "echus_river", "中文名": "Echus 河", "英文名": "Echus Chasma", "类别": "水体", "阵营": "—", "等级": "3", "正典": "仅地图", "MOLA高程_m": "-822", "2100状态": "陆地"}}, {"type": "Feature", "geometry": {"type": "Point", "coordinates": [-101.1889, -6.3625]}, "properties": {"id": "noctis", "中文名": "诺克提斯迷宫", "英文名": "Noctis Labyrinthus", "类别": "自然地标", "阵营": "—", "等级": "2", "正典": "正文+地图", "MOLA高程_m": "6954", "2100状态": "陆地"}}]}