{"type": "FeatureCollection", "features": [{"type": "Feature", "properties": {"leg": "第一程 · 冰上", "km": 3355}, "geometry": {"type": "LineString", "coordinates": [[323.438, 79.08], [323.438, 78.812], [323.438, 78.438], [323.438, 78.062], [323.438, 77.688], [323.438, 77.312], [323.438, 76.938], [323.438, 76.562], [323.438, 76.188], [323.438, 75.812], [323.438, 75.438], [323.438, 75.062], [323.438, 74.688], [323.438, 74.312], [323.438, 73.938], [323.438, 73.562], [323.438, 73.188], [323.438, 72.812], [323.438, 72.438], [323.438, 72.062], [323.438, 71.688], [323.438, 71.312], [323.438, 70.938], [323.438, 70.562], [323.438, 70.188], [323.438, 69.812], [323.438, 69.438], [323.438, 69.062], [323.438, 68.688], [323.438, 68.312], [323.438, 67.938], [323.438, 67.562], [323.438, 67.188], [323.438, 66.812], [323.384, 66.438], [323.17, 66.062], [322.812, 65.688], [322.438, 65.312], [322.062, 64.938], [321.688, 64.562], [321.366, 64.188], [321.205, 63.812], [321.188, 63.438], [321.188, 63.062], [321.188, 62.688], [321.188, 62.312], [321.188, 61.938], [321.188, 61.562], [321.188, 61.188], [321.188, 60.812], [321.188, 60.438], [321.188, 60.062], [321.188, 59.688], [321.188, 59.312], [321.188, 58.938], [321.188, 58.562], [321.188, 58.188], [321.188, 57.812], [321.188, 57.438], [321.188, 57.062], [321.188, 56.688], [321.188, 56.312], [321.134, 55.938], [321.08, 55.562], [321.062, 55.188], [321.062, 54.812], [321.062, 54.438], [321.062, 54.062], [321.062, 53.688], [321.062, 53.312], [321.062, 52.938], [321.062, 52.562], [321.062, 52.188], [321.062, 51.812], [321.062, 51.438], [321.062, 51.062], [321.062, 50.688], [321.062, 50.312], [321.062, 49.938], [321.062, 49.562], [321.062, 49.188], [321.062, 48.812], [321.062, 48.438], [321.062, 48.062], [321.062, 47.688], [321.062, 47.312], [321.062, 46.938], [321.062, 46.562], [321.062, 46.188], [321.062, 45.812], [321.062, 45.438], [321.062, 45.062], [321.062, 44.688], [321.062, 44.312], [321.062, 43.938], [321.062, 43.562], [321.062, 43.188], [321.009, 42.812], [320.955, 42.438], [320.938, 42.062], [320.938, 41.688], [320.938, 41.312], [320.938, 40.938], [320.938, 40.562], [320.938, 40.188], [320.938, 39.812], [320.938, 39.438], [320.938, 39.062], [320.938, 38.688], [320.938, 38.312], [320.938, 37.938], [320.83, 37.562], [320.562, 37.188], [320.188, 36.812], [319.812, 36.438], [319.438, 36.062], [319.062, 35.688], [318.688, 35.312], [318.312, 34.938], [317.938, 34.562], [317.562, 34.188], [317.188, 33.812], [316.812, 33.438], [316.438, 33.062], [316.062, 32.688], [315.688, 32.312], [315.312, 31.938], [314.938, 31.562], [314.562, 31.188], [314.188, 30.812], [313.812, 30.438], [313.438, 30.062], [313.062, 29.688], [312.688, 29.312], [312.312, 28.938], [311.938, 28.562], [311.562, 28.188], [311.188, 27.812], [310.812, 27.438], [310.438, 27.062], [310.062, 26.688], [309.705, 26.33]]}}, {"type": "Feature", "properties": {"leg": "第二程 · 河上", "km": 2513}, "geometry": {"type": "LineString", "coordinates": [[309.484, 26.078], [309.391, 26.078], [309.297, 26.078], [309.203, 26.078], [309.109, 26.078], [309.016, 26.078], [308.922, 26.085], [308.828, 26.095], [308.734, 26.106], [308.641, 26.109], [308.547, 26.109], [308.453, 26.109], [308.359, 26.109], [308.266, 26.116], [308.172, 26.127], [308.078, 26.144], [307.984, 26.165], [307.891, 26.189], [307.797, 26.234], [307.703, 26.28], [307.609, 26.318], [307.516, 26.328], [307.422, 26.328], [307.328, 26.328], [307.234, 26.328], [307.141, 26.328], [307.047, 26.328], [306.953, 26.328], [306.859, 26.325], [306.766, 26.293], [306.672, 26.252], [306.578, 26.203], [306.484, 26.172], [306.391, 26.141], [306.297, 26.109], [306.203, 26.089], [306.109, 26.071], [306.016, 26.061], [305.922, 26.05], [305.828, 26.047], [305.734, 26.047], [305.641, 26.047], [305.547, 26.047], [305.453, 26.047], [305.359, 26.047], [305.266, 26.047], [305.172, 26.043], [305.078, 26.026], [304.984, 26.005], [304.891, 25.988], [304.797, 25.984], [304.703, 25.984], [304.609, 25.984], [304.516, 26.002], [304.422, 26.023], [304.328, 26.043], [304.234, 26.047], [304.141, 26.047], [304.047, 26.047], [303.953, 26.047], [303.859, 26.047], [303.766, 26.047], [303.672, 26.047], [303.578, 26.047], [303.484, 26.047], [303.391, 26.026], [303.297, 25.984], [303.203, 25.943], [303.109, 25.922], [303.016, 25.922], [302.922, 25.922], [302.828, 25.908], [302.734, 25.877], [302.641, 25.828], [302.547, 25.786], [302.453, 25.755], [302.359, 25.724], [302.266, 25.689], [302.172, 25.648], [302.078, 25.592], [301.984, 25.526], [301.891, 25.467], [301.797, 25.425], [301.703, 25.387], [301.609, 25.349], [301.516, 25.318], [301.422, 25.3], [301.328, 25.283], [301.234, 25.273], [301.141, 25.266], [301.047, 25.266], [300.953, 25.266], [300.859, 25.266], [300.766, 25.266], [300.672, 25.266], [300.578, 25.266], [300.484, 25.266], [300.391, 25.266], [300.297, 25.266], [300.203, 25.262], [300.109, 25.241], [300.016, 25.22], [299.922, 25.203], [299.828, 25.203], [299.734, 25.203], [299.641, 25.203], [299.547, 25.203], [299.453, 25.203], [299.359, 25.203], [299.266, 25.203], [299.172, 25.203], [299.078, 25.203], [298.984, 25.193], [298.891, 25.182], [298.797, 25.151], [298.703, 25.099], [298.609, 25.026], [298.516, 24.964], [298.422, 24.911], [298.328, 24.849], [298.234, 24.786], [298.141, 24.724], [298.047, 24.672], [297.953, 24.63], [297.859, 24.589], [297.766, 24.55], [297.672, 24.502], [297.578, 24.467], [297.484, 24.439], [297.391, 24.405], [297.297, 24.349], [297.203, 24.293], [297.109, 24.241], [297.016, 24.207], [296.922, 24.161], [296.828, 24.109], [296.734, 24.068], [296.641, 24.036], [296.547, 23.995], [296.453, 23.939], [296.359, 23.877], [296.266, 23.825], [296.172, 23.755], [296.078, 23.672], [295.984, 23.592], [295.891, 23.53], [295.797, 23.484], [295.703, 23.429], [295.609, 23.366], [295.516, 23.307], [295.422, 23.259], [295.328, 23.22], [295.234, 23.168], [295.141, 23.102], [295.047, 23.016], [294.953, 22.932], [294.859, 22.852], [294.766, 22.78], [294.672, 22.714], [294.578, 22.668], [294.484, 22.641], [294.391, 22.623], [294.297, 22.602], [294.203, 22.578], [294.109, 22.557], [294.016, 22.547], [293.922, 22.547], [293.828, 22.536], [293.734, 22.526], [293.641, 22.516], [293.547, 22.516], [293.453, 22.516], [293.359, 22.516], [293.266, 22.516], [293.172, 22.516], [293.078, 22.516], [292.984, 22.516], [292.891, 22.516], [292.797, 22.516], [292.703, 22.516], [292.609, 22.516], [292.516, 22.516], [292.422, 22.516], [292.328, 22.516], [292.234, 22.516], [292.141, 22.516], [292.047, 22.516], [291.953, 22.516], [291.859, 22.516], [291.766, 22.516], [291.672, 22.516], [291.578, 22.516], [291.484, 22.505], [291.391, 22.495], [291.297, 22.484], [291.203, 22.481], [291.109, 22.47], [291.016, 22.45], [290.922, 22.418], [290.828, 22.38], [290.734, 22.335], [290.641, 22.293], [290.547, 22.248], [290.453, 22.21], [290.359, 22.182], [290.266, 22.172], [290.172, 22.172], [290.078, 22.172], [289.984, 22.172], [289.891, 22.172], [289.797, 22.172], [289.703, 22.172], [289.609, 22.161], [289.516, 22.148], [289.422, 22.127], [289.328, 22.113], [289.234, 22.095], [289.141, 22.085], [289.047, 22.075], [288.953, 22.064], [288.859, 22.05], [288.766, 22.023], [288.672, 22.002], [288.578, 21.974], [288.484, 21.932], [288.391, 21.859], [288.297, 21.766], [288.203, 21.672], [288.113, 21.578], [288.036, 21.484], [287.964, 21.391], [287.887, 21.297], [287.797, 21.203], [287.703, 21.109], [287.609, 21.016], [287.516, 20.922], [287.422, 20.828], [287.328, 20.734], [287.234, 20.641], [287.141, 20.547], [287.047, 20.453], [286.953, 20.359], [286.873, 20.266], [286.821, 20.172], [286.793, 20.078], [286.78, 19.984], [286.769, 19.891], [286.766, 19.797], [286.766, 19.703], [286.766, 19.609], [286.766, 19.516], [286.759, 19.422], [286.738, 19.328], [286.686, 19.234], [286.609, 19.144], [286.516, 19.071], [286.422, 18.998], [286.328, 18.922], [286.234, 18.828], [286.141, 18.734], [286.047, 18.641], [285.957, 18.547], [285.894, 18.453], [285.856, 18.359], [285.835, 18.266], [285.804, 18.172], [285.776, 18.078], [285.741, 17.984], [285.703, 17.891], [285.655, 17.797], [285.613, 17.703], [285.582, 17.609], [285.55, 17.516], [285.53, 17.422], [285.516, 17.328], [285.516, 17.234], [285.516, 17.141], [285.516, 17.047], [285.516, 16.953], [285.516, 16.859], [285.516, 16.766], [285.516, 16.672], [285.516, 16.578], [285.516, 16.484], [285.495, 16.391], [285.464, 16.297], [285.429, 16.203], [285.401, 16.109], [285.373, 16.016], [285.345, 15.922], [285.332, 15.828], [285.328, 15.734], [285.328, 15.641], [285.328, 15.547], [285.325, 15.453], [285.314, 15.359], [285.297, 15.266], [285.28, 15.172], [285.269, 15.078], [285.266, 14.984], [285.255, 14.891], [285.245, 14.797], [285.234, 14.703], [285.234, 14.609], [285.231, 14.516], [285.22, 14.422], [285.21, 14.328], [285.182, 14.234], [285.13, 14.141], [285.057, 14.047], [285.005, 13.953], [284.984, 13.859], [284.984, 13.766], [284.984, 13.672], [284.984, 13.578], [284.984, 13.484], [284.984, 13.391], [284.984, 13.297], [284.984, 13.203], [284.984, 13.109], [284.984, 13.016], [284.984, 12.922], [284.984, 12.828], [284.981, 12.734], [284.97, 12.641], [284.96, 12.547], [284.953, 12.453], [284.953, 12.359], [284.953, 12.266], [284.943, 12.172], [284.901, 12.078], [284.832, 11.984], [284.769, 11.891], [284.738, 11.797], [284.734, 11.703], [284.731, 11.609], [284.7, 11.516], [284.658, 11.422], [284.613, 11.328], [284.571, 11.234], [284.519, 11.141], [284.453, 11.047], [284.384, 10.953], [284.311, 10.859], [284.227, 10.766], [284.151, 10.672], [284.099, 10.578], [284.078, 10.484], [284.078, 10.391], [284.078, 10.297], [284.078, 10.203], [284.078, 10.109], [284.078, 10.016], [284.078, 9.922], [284.061, 9.828], [284.04, 9.734], [284.019, 9.641], [284.016, 9.547], [284.016, 9.453], [284.016, 9.359], [284.016, 9.266], [284.009, 9.172], [283.998, 9.078], [283.988, 8.984], [283.984, 8.891], [283.984, 8.797], [283.984, 8.703], [283.981, 8.609], [283.967, 8.516], [283.925, 8.422], [283.863, 8.328], [283.804, 8.234], [283.769, 8.141], [283.734, 8.047], [283.696, 7.953], [283.658, 7.859], [283.644, 7.766], [283.634, 7.672], [283.613, 7.578], [283.571, 7.484], [283.505, 7.391], [283.422, 7.297], [283.328, 7.203], [283.234, 7.109], [283.141, 7.016], [283.047, 6.922], [282.953, 6.828], [282.859, 6.734], [282.766, 6.641], [282.672, 6.547], [282.578, 6.453], [282.495, 6.359], [282.432, 6.266], [282.391, 6.172], [282.37, 6.078], [282.359, 5.984], [282.356, 5.891], [282.345, 5.797], [282.335, 5.703], [282.311, 5.609], [282.28, 5.516], [282.217, 5.422], [282.141, 5.328], [282.054, 5.234], [281.97, 5.141], [281.898, 5.047], [281.818, 4.953], [281.734, 4.859], [281.641, 4.766], [281.55, 4.672], [281.477, 4.578], [281.422, 4.484], [281.377, 4.391], [281.314, 4.297], [281.234, 4.203], [281.141, 4.109], [281.047, 4.016], [280.953, 3.922], [280.859, 3.828], [280.766, 3.734], [280.672, 3.641], [280.578, 3.547], [280.484, 3.453], [280.391, 3.359], [280.297, 3.266], [280.22, 3.172], [280.168, 3.078], [280.148, 2.984], [280.141, 2.891], [280.134, 2.797], [280.123, 2.703], [280.099, 2.609], [280.075, 2.536]]}}, {"type": "Feature", "properties": {"leg": "第三程 · 高原", "km": 3584}, "geometry": {"type": "LineString", "coordinates": [[280.034, 2.503], [280.003, 2.578], [279.966, 2.672], [279.953, 2.766], [279.953, 2.859], [279.953, 2.953], [279.941, 3.047], [279.922, 3.141], [279.922, 3.234], [279.922, 3.328], [279.922, 3.422], [279.903, 3.516], [279.891, 3.609], [279.891, 3.703], [279.891, 3.797], [279.891, 3.891], [279.891, 3.984], [279.891, 4.078], [279.891, 4.172], [279.891, 4.266], [279.891, 4.359], [279.891, 4.453], [279.891, 4.547], [279.891, 4.641], [279.878, 4.734], [279.841, 4.828], [279.803, 4.922], [279.759, 5.016], [279.672, 5.109], [279.578, 5.203], [279.484, 5.297], [279.403, 5.391], [279.328, 5.478], [279.234, 5.516], [279.141, 5.553], [279.047, 5.622], [278.953, 5.672], [278.859, 5.703], [278.766, 5.703], [278.672, 5.703], [278.578, 5.722], [278.484, 5.747], [278.391, 5.791], [278.297, 5.859], [278.203, 5.953], [278.109, 6.041], [278.016, 6.078], [277.922, 6.078], [277.828, 6.078], [277.734, 6.097], [277.641, 6.109], [277.547, 6.128], [277.453, 6.203], [277.359, 6.297], [277.266, 6.372], [277.172, 6.453], [277.078, 6.547], [276.984, 6.641], [276.891, 6.728], [276.797, 6.797], [276.703, 6.828], [276.609, 6.834], [276.516, 6.853], [276.422, 6.859], [276.328, 6.878], [276.234, 6.891], [276.141, 6.909], [276.047, 6.928], [275.953, 6.966], [275.859, 7.028], [275.766, 7.066], [275.672, 7.141], [275.578, 7.228], [275.484, 7.272], [275.391, 7.328], [275.297, 7.422], [275.203, 7.484], [275.109, 7.509], [275.016, 7.534], [274.922, 7.584], [274.828, 7.672], [274.734, 7.747], [274.641, 7.791], [274.547, 7.822], [274.453, 7.866], [274.359, 7.947], [274.266, 7.984], [274.172, 8.003], [274.078, 8.066], [273.984, 8.141], [273.891, 8.234], [273.797, 8.328], [273.703, 8.409], [273.609, 8.484], [273.516, 8.578], [273.422, 8.672], [273.328, 8.766], [273.234, 8.859], [273.141, 8.953], [273.047, 9.047], [272.953, 9.141], [272.859, 9.234], [272.766, 9.328], [272.672, 9.416], [272.578, 9.491], [272.484, 9.547], [272.391, 9.597], [272.297, 9.641], [272.203, 9.678], [272.109, 9.703], [272.016, 9.709], [271.922, 9.766], [271.828, 9.859], [271.734, 9.953], [271.641, 10.047], [271.547, 10.141], [271.453, 10.234], [271.359, 10.328], [271.266, 10.403], [271.172, 10.422], [271.078, 10.422], [270.984, 10.422], [270.891, 10.434], [270.797, 10.459], [270.703, 10.497], [270.609, 10.528], [270.516, 10.578], [270.422, 10.628], [270.328, 10.641], [270.234, 10.641], [270.141, 10.659], [270.047, 10.678], [269.953, 10.734], [269.859, 10.822], [269.766, 10.897], [269.672, 10.972], [269.578, 11.034], [269.484, 11.097], [269.391, 11.166], [269.297, 11.222], [269.203, 11.297], [269.109, 11.391], [269.016, 11.484], [268.922, 11.578], [268.828, 11.672], [268.734, 11.766], [268.641, 11.859], [268.547, 11.953], [268.453, 12.047], [268.359, 12.141], [268.266, 12.234], [268.172, 12.328], [268.078, 12.403], [267.984, 12.484], [267.891, 12.578], [267.797, 12.672], [267.703, 12.766], [267.609, 12.859], [267.516, 12.953], [267.422, 13.047], [267.328, 13.141], [267.234, 13.234], [267.141, 13.328], [267.047, 13.422], [266.953, 13.516], [266.859, 13.609], [266.766, 13.684], [266.672, 13.741], [266.578, 13.828], [266.484, 13.891], [266.391, 13.953], [266.297, 14.047], [266.203, 14.141], [266.109, 14.234], [266.016, 14.328], [265.922, 14.422], [265.828, 14.516], [265.734, 14.609], [265.641, 14.703], [265.547, 14.784], [265.453, 14.859], [265.359, 14.934], [265.266, 15.009], [265.172, 15.047], [265.078, 15.078], [264.984, 15.109], [264.891, 15.128], [264.797, 15.178], [264.703, 15.234], [264.609, 15.284], [264.516, 15.359], [264.422, 15.434], [264.328, 15.491], [264.234, 15.578], [264.141, 15.672], [264.047, 15.759], [263.953, 15.834], [263.859, 15.922], [263.766, 16.016], [263.672, 16.109], [263.578, 16.203], [263.484, 16.297], [263.391, 16.391], [263.297, 16.484], [263.203, 16.578], [263.109, 16.672], [263.016, 16.766], [262.922, 16.853], [262.828, 16.897], [262.734, 16.916], [262.641, 16.934], [262.547, 16.953], [262.453, 16.953], [262.359, 16.953], [262.266, 16.953], [262.172, 16.953], [262.078, 16.953], [261.984, 16.953], [261.891, 16.953], [261.797, 16.972], [261.703, 16.984], [261.609, 16.984], [261.516, 16.984], [261.422, 16.984], [261.328, 16.984], [261.234, 16.984], [261.141, 16.984], [261.047, 16.984], [260.953, 17.003], [260.859, 17.016], [260.766, 17.016], [260.672, 17.034], [260.578, 17.047], [260.484, 17.047], [260.391, 17.047], [260.297, 17.053], [260.203, 17.097], [260.109, 17.153], [260.016, 17.228], [259.922, 17.297], [259.828, 17.366], [259.734, 17.416], [259.641, 17.441], [259.547, 17.478], [259.453, 17.484], [259.359, 17.484], [259.266, 17.484], [259.172, 17.484], [259.078, 17.484], [258.984, 17.484], [258.891, 17.484], [258.797, 17.484], [258.703, 17.484], [258.609, 17.484], [258.516, 17.484], [258.422, 17.484], [258.328, 17.484], [258.234, 17.484], [258.141, 17.484], [258.047, 17.484], [257.953, 17.484], [257.859, 17.484], [257.766, 17.484], [257.672, 17.484], [257.578, 17.484], [257.484, 17.484], [257.391, 17.484], [257.297, 17.484], [257.203, 17.484], [257.109, 17.484], [257.016, 17.484], [256.922, 17.484], [256.828, 17.484], [256.734, 17.484], [256.641, 17.484], [256.547, 17.484], [256.453, 17.484], [256.359, 17.484], [256.266, 17.484], [256.172, 17.484], [256.078, 17.484], [255.984, 17.484], [255.891, 17.484], [255.797, 17.484], [255.703, 17.484], [255.609, 17.484], [255.516, 17.484], [255.422, 17.484], [255.328, 17.484], [255.234, 17.484], [255.141, 17.484], [255.047, 17.484], [254.953, 17.453], [254.859, 17.422], [254.766, 17.422], [254.672, 17.422], [254.578, 17.422], [254.484, 17.422], [254.391, 17.422], [254.297, 17.422], [254.203, 17.422], [254.109, 17.409], [254.016, 17.391], [253.922, 17.391], [253.828, 17.391], [253.734, 17.391], [253.641, 17.391], [253.547, 17.391], [253.453, 17.359], [253.359, 17.328], [253.266, 17.328], [253.172, 17.328], [253.078, 17.328], [252.984, 17.328], [252.891, 17.328], [252.797, 17.328], [252.703, 17.309], [252.609, 17.297], [252.516, 17.297], [252.422, 17.297], [252.328, 17.297], [252.234, 17.297], [252.141, 17.297], [252.047, 17.284], [251.953, 17.266], [251.859, 17.234], [251.766, 17.191], [251.672, 17.147], [251.578, 17.084], [251.484, 17.041], [251.391, 17.016], [251.297, 16.953], [251.203, 16.897], [251.109, 16.891], [251.016, 16.891], [250.922, 16.891], [250.828, 16.891], [250.734, 16.891], [250.641, 16.891], [250.547, 16.891], [250.453, 16.891], [250.359, 16.891], [250.266, 16.891], [250.172, 16.891], [250.078, 16.891], [249.984, 16.853], [249.891, 16.772], [249.797, 16.716], [249.703, 16.647], [249.609, 16.609], [249.516, 16.609], [249.422, 16.609], [249.328, 16.609], [249.234, 16.609], [249.141, 16.609], [249.047, 16.609], [248.953, 16.609], [248.859, 16.609], [248.766, 16.609], [248.672, 16.609], [248.578, 16.609], [248.484, 16.609], [248.391, 16.609], [248.297, 16.609], [248.203, 16.609], [248.109, 16.609], [248.016, 16.609], [247.922, 16.609], [247.828, 16.609], [247.734, 16.603], [247.641, 16.584], [247.547, 16.578], [247.453, 16.578], [247.359, 16.578], [247.266, 16.578], [247.172, 16.578], [247.078, 16.566], [246.984, 16.528], [246.891, 16.484], [246.797, 16.453], [246.703, 16.453], [246.609, 16.453], [246.516, 16.453], [246.422, 16.453], [246.328, 16.441], [246.234, 16.422], [246.141, 16.422], [246.047, 16.422], [245.953, 16.422], [245.859, 16.422], [245.766, 16.422], [245.672, 16.422], [245.578, 16.422], [245.484, 16.409], [245.391, 16.359], [245.297, 16.328], [245.203, 16.322], [245.109, 16.303], [245.016, 16.297], [244.922, 16.291], [244.828, 16.272], [244.734, 16.266], [244.641, 16.266], [244.547, 16.266], [244.453, 16.266], [244.359, 16.266], [244.266, 16.259], [244.172, 16.241], [244.078, 16.234], [243.984, 16.234], [243.891, 16.228], [243.797, 16.197], [243.703, 16.172], [243.609, 16.172], [243.516, 16.172], [243.422, 16.172], [243.328, 16.172], [243.234, 16.159], [243.141, 16.122], [243.047, 16.103], [242.953, 16.084], [242.859, 16.078], [242.766, 16.078], [242.672, 16.078], [242.578, 16.072], [242.484, 16.016], [242.391, 15.959], [242.297, 15.941], [242.203, 15.884], [242.109, 15.816], [242.016, 15.734], [241.922, 15.659], [241.828, 15.609], [241.734, 15.547], [241.641, 15.478], [241.547, 15.453], [241.453, 15.453], [241.359, 15.428], [241.266, 15.397], [241.172, 15.391], [241.078, 15.372], [240.984, 15.341], [240.891, 15.328], [240.797, 15.303], [240.703, 15.259], [240.609, 15.234], [240.516, 15.234], [240.422, 15.216], [240.328, 15.153], [240.234, 15.097], [240.141, 15.041], [240.047, 14.991], [239.953, 14.984], [239.859, 14.984], [239.766, 14.966], [239.672, 14.953], [239.578, 14.928], [239.484, 14.897], [239.391, 14.891], [239.297, 14.891], [239.203, 14.891], [239.109, 14.891], [239.016, 14.891], [238.922, 14.891], [238.828, 14.891], [238.734, 14.884], [238.641, 14.847], [238.547, 14.828], [238.453, 14.822], [238.359, 14.791], [238.266, 14.766], [238.172, 14.766], [238.078, 14.766], [237.984, 14.766], [237.891, 14.728], [237.797, 14.641], [237.703, 14.566], [237.609, 14.509], [237.516, 14.466], [237.422, 14.453], [237.328, 14.434], [237.234, 14.391], [237.141, 14.366], [237.047, 14.359], [236.953, 14.341], [236.859, 14.328], [236.766, 14.328], [236.672, 14.309], [236.578, 14.297], [236.484, 14.291], [236.391, 14.272], [236.297, 14.266], [236.203, 14.266], [236.109, 14.266], [236.016, 14.266], [235.922, 14.266], [235.828, 14.266], [235.734, 14.266], [235.641, 14.259], [235.547, 14.234], [235.453, 14.203], [235.359, 14.159], [235.266, 14.141], [235.172, 14.134], [235.078, 14.116], [234.984, 14.109], [234.891, 14.109], [234.797, 14.109], [234.703, 14.103], [234.609, 14.066], [234.516, 14.047], [234.422, 14.047], [234.328, 14.047], [234.234, 14.028], [234.141, 14.016], [234.047, 13.997], [233.953, 13.984], [233.859, 13.984], [233.766, 13.984], [233.672, 13.984], [233.578, 13.984], [233.484, 13.984], [233.391, 13.984], [233.297, 13.953], [233.203, 13.903], [233.109, 13.891], [233.016, 13.891], [232.922, 13.891], [232.828, 13.891], [232.734, 13.891], [232.641, 13.891], [232.547, 13.891], [232.453, 13.884], [232.359, 13.834], [232.266, 13.797], [232.172, 13.772], [232.078, 13.709], [231.984, 13.672], [231.891, 13.672], [231.797, 13.672], [231.703, 13.672], [231.609, 13.672], [231.516, 13.672], [231.422, 13.672], [231.328, 13.672], [231.234, 13.672], [231.141, 13.672], [231.047, 13.672], [230.953, 13.672], [230.859, 13.672], [230.766, 13.659], [230.672, 13.641], [230.578, 13.641], [230.484, 13.641], [230.391, 13.628], [230.297, 13.591], [230.203, 13.534], [230.109, 13.497], [230.016, 13.484], [229.922, 13.484], [229.828, 13.484], [229.734, 13.484], [229.641, 13.472], [229.547, 13.441], [229.453, 13.422], [229.359, 13.422], [229.266, 13.422], [229.172, 13.422], [229.078, 13.422], [228.984, 13.422], [228.891, 13.422], [228.797, 13.409], [228.703, 13.391], [228.609, 13.372], [228.516, 13.359], [228.422, 13.347], [228.328, 13.328], [228.234, 13.328], [228.141, 13.328], [228.047, 13.328], [227.953, 13.328], [227.859, 13.322], [227.766, 13.291], [227.672, 13.266], [227.578, 13.266], [227.484, 13.266], [227.391, 13.266], [227.297, 13.266], [227.203, 13.266], [227.109, 13.266], [227.016, 13.266], [226.922, 13.266], [226.828, 13.266], [226.734, 13.284], [226.641, 13.328], [226.547, 13.391], [226.453, 13.484], [226.378, 13.578], [226.359, 13.672], [226.359, 13.766], [226.322, 13.859], [226.247, 13.953], [226.209, 14.047], [226.203, 14.122]]}}, {"type": "Feature", "properties": {"n": 1, "name": "废井站（塞韦尔坑缘）", "km": 0, "z": -5027}, "geometry": {"type": "Point", "coordinates": [323.438, 79.08]}}, {"type": "Feature", "properties": {"n": 2, "name": "克律塞湾口", "km": 1438, "z": -4776}, "geometry": {"type": "Point", "coordinates": [321.062, 54.99]}}, {"type": "Feature", "properties": {"n": 3, "name": "回声河口", "km": 3355, "z": -3747}, "geometry": {"type": "Point", "coordinates": [309.553, 26.178]}}, {"type": "Feature", "properties": {"n": 4, "name": "下卡塞峡口", "km": 3955, "z": -3468}, "geometry": {"type": "Point", "coordinates": [298.719, 25.11]}}, {"type": "Feature", "properties": {"n": 5, "name": "卡塞落差", "km": 4805, "z": -2049}, "geometry": {"type": "Point", "coordinates": [286.126, 18.72]}}, {"type": "Feature", "properties": {"n": 6, "name": "南通", "km": 5868, "z": -824}, "geometry": {"type": "Point", "coordinates": [280.1, 2.612]}}, {"type": "Feature", "properties": {"n": 7, "name": "出回声峡谷", "km": 6124, "z": -21}, "geometry": {"type": "Point", "coordinates": [278.403, 5.783]}}, {"type": "Feature", "properties": {"n": 8, "name": "鞍部", "km": 7536, "z": 3121}, "geometry": {"type": "Point", "coordinates": [258.36, 17.484]}}, {"type": "Feature", "properties": {"n": 9, "name": "崖脚", "km": 9390, "z": -486}, "geometry": {"type": "Point", "coordinates": [226.866, 13.266]}}, {"type": "Feature", "properties": {"n": 10, "name": "尼克斯奥林匹卡", "km": 9460, "z": 4150}, "geometry": {"type": "Point", "coordinates": [226.203, 14.121]}}]}